[{"OBJECT_NAME":"STARLINK-1595","OBJECT_ID":"2020-057AU","EPOCH":"2026-03-09T22:28:07.003488","MEAN_MOTION":15.50215839,"ECCENTRICITY":0.00065785,"INCLINATION":53.0492,"RA_OF_ASC_NODE":295.4863,"ARG_OF_PERICENTER":121.0092,"MEAN_ANOMALY":239.1563,"EPHEMERIS_TYPE":0,"CLASSIFICATION_TYPE":"U","NORAD_CAT_ID":46159,"ELEMENT_SET_NO":999,"REV_AT_EPOCH":30764,"BSTAR":0.0019946424,"MEAN_MOTION_DOT":0.00115887,"MEAN_MOTION_DDOT":0},{"OBJECT_NAME":"SL-3 DEB","OBJECT_ID":"1983-075C","EPOCH":"2026-03-09T22:38:24.073152","MEAN_MOTION":15.48527817,"ECCENTRICITY":0.00157968,"INCLINATION":97.2042,"RA_OF_ASC_NODE":58.9597,"ARG_OF_PERICENTER":56.7579,"MEAN_ANOMALY":303.5183,"EPHEMERIS_TYPE":0,"CLASSIFICATION_TYPE":"U","NORAD_CAT_ID":14209,"ELEMENT_SET_NO":999,"REV_AT_EPOCH":33887,"BSTAR":0.00034834445,"MEAN_MOTION_DOT":0.00018558,"MEAN_MOTION_DDOT":0}]
